[
    {
        "Altitude(m)": 559886.4831384465,
        "Argument of Periapsis(deg)": 0.033114955553567506,
        "Eccentricity": 0.0,
        "Inclination(deg)": 53.0,
        "Latitude(deg)": 53.08911624427664,
        "Longitude(deg)": -70.14950780338481,
        "Mean Anomaly(deg)": -267.72373566211206,
        "RAAN(deg)": 299.9507168426401,
        "Satellite Name": "Starlink Shell 1 1322",
        "Satellite Number": 1322,
        "Semi-Major Axis(m)": 6931778.249405717,
        "Time(s)": 950
    },
    {
        "Altitude(m)": 559877.9205081152,
        "Argument of Periapsis(deg)": 0.03346353403307874,
        "Eccentricity": 0.0,
        "Inclination(deg)": 53.0,
        "Latitude(deg)": 53.05106872204795,
        "Longitude(deg)": -69.15233504954124,
        "Mean Anomaly(deg)": -267.09690445855534,
        "RAAN(deg)": 299.9501980725626,
        "Satellite Name": "Starlink Shell 1 1322",
        "Satellite Number": 1322,
        "Semi-Major Axis(m)": 6931778.249405717,
        "Time(s)": 960
    },
    {
        "Altitude(m)": 559867.3023972622,
        "Argument of Periapsis(deg)": 0.03381211251258998,
        "Eccentricity": 0.0,
        "Inclination(deg)": 53.0,
        "Latitude(deg)": 53.00397875401273,
        "Longitude(deg)": -68.15720522726681,
        "Mean Anomaly(deg)": -266.47007325499857,
        "RAAN(deg)": 299.94967930248515,
        "Satellite Name": "Starlink Shell 1 1322",
        "Satellite Number": 1322,
        "Semi-Major Axis(m)": 6931778.249405717,
        "Time(s)": 970
    },
    {
        "Altitude(m)": 559854.6352136959,
        "Argument of Periapsis(deg)": 0.034160690992101214,
        "Eccentricity": 0.0,
        "Inclination(deg)": 53.0,
        "Latitude(deg)": 52.94788114693441,
        "Longitude(deg)": -67.16454200469416,
        "Mean Anomaly(deg)": -265.8432420514419,
        "RAAN(deg)": 299.94916053240763,
        "Satellite Name": "Starlink Shell 1 1322",
        "Satellite Number": 1322,
        "Semi-Major Axis(m)": 6931778.249405717,
        "Time(s)": 980
    },
    {
        "Altitude(m)": 559839.9265963502,
        "Argument of Periapsis(deg)": 0.034509269471612446,
        "Eccentricity": 0.0,
        "Inclination(deg)": 53.0,
        "Latitude(deg)": 52.88281713658982,
        "Longitude(deg)": -66.1747612837304,
        "Mean Anomaly(deg)": -265.2164108478852,
        "RAAN(deg)": 299.9486417623302,
        "Satellite Name": "Starlink Shell 1 1322",
        "Satellite Number": 1322,
        "Semi-Major Axis(m)": 6931778.249405717,
        "Time(s)": 990
    }
]